{
  "type": "FeatureCollection",
  "features": [
    {
      "type": "Feature",
      "properties": { "code": "500106001", "name": "小龙坎街道", "parentCode": "500106" },
      "geometry": {
        "type": "Polygon",
        "coordinates": [
          [
            [106.45, 29.54],
            [106.48, 29.54],
            [106.48, 29.57],
            [106.45, 29.57],
            [106.45, 29.54]
          ]
        ]
      }
    },
    {
      "type": "Feature",
      "properties": { "code": "500106012", "name": "西永街道", "parentCode": "500106" },
      "geometry": {
        "type": "Polygon",
        "coordinates": [
          [
            [106.34, 29.60],
            [106.38, 29.60],
            [106.38, 29.64],
            [106.34, 29.64],
            [106.34, 29.60]
          ]
        ]
      }
    },
    {
      "type": "Feature",
      "properties": { "code": "500106015", "name": "虎溪街道", "parentCode": "500106" },
      "geometry": {
        "type": "Polygon",
        "coordinates": [
          [
            [106.38, 29.56],
            [106.42, 29.56],
            [106.42, 29.60],
            [106.38, 29.60],
            [106.38, 29.56]
          ]
        ]
      }
    }
  ]
}
