{"type": "FeatureCollection", "features": [{"type": "Feature", "properties": {"code": "500106", "name": "沙坪坝区", "parentCode": "500", "variant": "outline"}, "geometry": {"type": "MultiPolygon", "coordinates": [[[[106.451322, 29.523425], [106.450116, 29.522931], [106.449822, 29.521624], [106.449457, 29.521439], [106.447585, 29.522101], [106.447587, 29.519527], [106.44722, 29.519254], [106.447106, 29.517976], [106.446793, 29.517565], [106.446803, 29.517187], [106.447734, 29.516431], [106.447609, 29.515993], [106.443606, 29.515867], [106.443581, 29.515185], [106.442843, 29.514835], [106.444069, 29.513321], [106.443428, 29.51297], [106.442377, 29.512975], [106.441868, 29.511282], [106.444569, 29.511221], [106.445228, 29.510253], [106.44466, 29.509834], [106.44497, 29.509302], [106.446163, 29.508838], [106.445507, 29.508561], [106.4444, 29.507356], [106.444559, 29.506646], [106.444183, 29.506122], [106.444661, 29.505536], [106.44462, 29.505119], [106.444382, 29.504842], [106.443655, 29.505069], [106.443357, 29.504826], [106.443619, 29.503515], [106.441436, 29.503799], [106.441021, 29.503377], [106.440839, 29.500308], [106.440477, 29.499822], [106.439029, 29.499258], [106.438713, 29.498236], [106.438975, 29.496754], [106.437763, 29.496764], [106.436764, 29.498107], [106.435324, 29.498132], [106.435275, 29.499247], [106.434413, 29.49924], [106.432951, 29.497801], [106.432043, 29.497465], [106.430827, 29.498091], [106.430742, 29.500183], [106.430265, 29.500681], [106.429421, 29.500909], [106.428902, 29.500004], [106.428436, 29.501153], [106.428519, 29.501741], [106.426465, 29.501428], [106.425585, 29.502984], [106.423756, 29.503925], [106.423628, 29.500639], [106.423923, 29.499593], [106.422567, 29.499599], [106.422404, 29.497597], [106.421274, 29.495925], [106.419536, 29.496581], [106.418787, 29.49611], [106.416677, 29.496549], [106.416127, 29.495577], [106.413464, 29.494658], [106.411437, 29.495255], [106.405089, 29.495489], [106.404202, 29.494568], [106.403146, 29.495004], [106.402487, 29.495834], [106.403092, 29.497234], [106.402982, 29.498823], [106.402395, 29.500517], [106.402986, 29.502131], [106.402653, 29.503126], [106.402772, 29.504676], [106.403276, 29.50465], [106.404518, 29.503687], [106.405185, 29.503803], [106.405776, 29.504363], [106.406718, 29.503849], [106.406396, 29.505101], [106.407154, 29.507169], [106.407172, 29.508526], [106.405732, 29.508592], [106.405552, 29.51023], [106.405947, 29.510796], [106.407564, 29.511668], [106.407509, 29.512216], [106.406859, 29.5124], [106.40674, 29.512921], [106.407882, 29.512841], [106.408206, 29.513491], [106.407778, 29.514389], [106.408091, 29.514969], [106.407652, 29.516589], [106.408364, 29.51794], [106.408254, 29.521758], [106.408588, 29.52236], [106.408834, 29.524806], [106.408593, 29.527157], [106.408999, 29.528831], [106.408567, 29.529892], [106.40915, 29.530599], [106.408607, 29.531311], [106.408895, 29.53225], [106.409952, 29.533204], [106.409271, 29.53376], [106.40929, 29.534109], [106.409867, 29.534152], [106.409557, 29.536241], [106.409142, 29.53705], [106.410244, 29.53806], [106.410409, 29.538594], [106.410132, 29.540013], [106.409302, 29.541142], [106.410525, 29.543142], [106.410183, 29.543682], [106.409355, 29.543686], [106.408758, 29.543277], [106.408267, 29.543622], [106.402671, 29.544021], [106.401435, 29.543532], [106.40047, 29.542194], [106.400008, 29.54207], [106.39993, 29.541325], [106.39792, 29.544205], [106.395299, 29.545163], [106.394987, 29.546563], [106.394405, 29.547376], [106.394823, 29.551884], [106.39452, 29.55223], [106.394752, 29.552314], [106.394484, 29.553809], [106.395198, 29.554098], [106.395399, 29.554606], [106.395363, 29.555285], [106.39481, 29.555548], [106.39461, 29.556797], [106.395557, 29.559648], [106.395117, 29.559898], [106.395369, 29.560622], [106.395935, 29.561002], [106.395806, 29.563786], [106.395027, 29.564426], [106.395015, 29.565913], [106.396195, 29.566332], [106.396476, 29.568227], [106.3962, 29.568393], [106.396052, 29.570422], [106.396568, 29.571281], [106.396467, 29.571981], [106.397625, 29.572496], [106.397307, 29.572668], [106.397439, 29.573488], [106.396658, 29.575659], [106.397425, 29.576035], [106.396583, 29.57635], [106.396203, 29.577472], [106.396533, 29.57958], [106.396262, 29.582743], [106.398459, 29.589723], [106.397827, 29.593935], [106.398799, 29.596934], [106.397923, 29.597644], [106.397579, 29.598783], [106.396793, 29.599105], [106.396056, 29.599996], [106.395908, 29.600999], [106.396724, 29.601619], [106.396332, 29.601825], [106.396128, 29.602752], [106.395247, 29.603155], [106.395203, 29.604157], [106.395583, 29.604813], [106.394893, 29.605002], [106.394879, 29.605581], [106.396941, 29.606287], [106.396931, 29.608715], [106.397756, 29.609994], [106.397572, 29.61138], [106.398234, 29.612196], [106.397841, 29.613166], [106.398212, 29.613571], [106.397934, 29.614808], [106.396598, 29.616348], [106.395525, 29.616252], [106.391763, 29.616966], [106.390407, 29.616314], [106.389955, 29.616443], [106.387869, 29.615074], [106.386592, 29.615199], [106.386823, 29.614283], [106.386273, 29.614176], [106.386454, 29.614039], [106.384641, 29.614155], [106.384197, 29.61958], [106.383446, 29.622402], [106.381995, 29.621519], [106.381195, 29.620424], [106.380901, 29.615986], [106.37895, 29.61709], [106.374557, 29.615089], [106.374805, 29.61389], [106.376023, 29.612394], [106.376554, 29.610766], [106.37656, 29.609387], [106.375592, 29.60943], [106.374511, 29.610477], [106.37387, 29.612726], [106.373926, 29.61408], [106.375038, 29.618516], [106.3744, 29.627047], [106.365119, 29.627044], [106.364189, 29.632199], [106.361946, 29.631672], [106.360537, 29.632023], [106.359708, 29.634013], [106.360347, 29.634974], [106.359187, 29.635452], [106.359536, 29.636843], [106.35807, 29.637459], [106.358185, 29.638003], [106.357231, 29.638141], [106.357162, 29.638502], [106.357593, 29.638777], [106.35605, 29.638976], [106.355214, 29.638487], [106.35539, 29.637141], [106.352393, 29.637275], [106.350483, 29.636405], [106.351591, 29.636225], [106.351901, 29.635812], [106.352947, 29.635822], [106.352899, 29.635348], [106.352078, 29.635201], [106.352007, 29.633848], [106.352406, 29.63376], [106.352546, 29.631985], [106.352085, 29.631941], [106.351982, 29.63248], [106.351298, 29.632967], [106.350713, 29.632633], [106.351346, 29.6312], [106.350875, 29.630539], [106.350901, 29.630014], [106.35225, 29.628487], [106.352028, 29.628178], [106.351193, 29.627743], [106.34892, 29.627889], [106.348705, 29.627721], [106.34891, 29.627031], [106.346657, 29.627036], [106.347404, 29.618584], [106.346171, 29.609684], [106.34376, 29.601717], [106.333399, 29.601307], [106.333363, 29.602339], [106.332128, 29.60301], [106.331481, 29.603848], [106.332119, 29.605792], [106.328056, 29.605776], [106.32686, 29.606494], [106.326838, 29.609999], [106.312735, 29.609989], [106.312703, 29.616773], [106.307076, 29.616697], [106.30686, 29.617024], [106.30648, 29.619262], [106.307124, 29.626992], [106.305621, 29.627025], [106.306732, 29.631744], [106.296413, 29.631805], [106.297108, 29.633312], [106.295852, 29.633858], [106.296189, 29.634382], [106.295662, 29.634491], [106.296583, 29.634554], [106.295055, 29.634946], [106.294365, 29.634501], [106.2936, 29.634483], [106.293293, 29.63409], [106.292483, 29.634304], [106.291565, 29.634011], [106.289459, 29.636168], [106.288252, 29.636634], [106.288005, 29.637143], [106.28471, 29.638368], [106.285778, 29.640153], [106.285718, 29.640709], [106.28317, 29.641799], [106.280329, 29.645421], [106.279544, 29.645729], [106.277222, 29.645418], [106.276555, 29.645604], [106.27611, 29.646954], [106.276478, 29.649142], [106.275207, 29.649138], [106.27511, 29.649988], [106.275245, 29.650637], [106.276374, 29.650721], [106.276767, 29.651709], [106.275468, 29.651506], [106.275062, 29.651861], [106.275772, 29.653398], [106.277145, 29.659035], [106.277924, 29.659474], [106.279567, 29.658839], [106.280689, 29.658943], [106.281007, 29.661296], [106.281722, 29.662064], [106.281784, 29.66296], [106.282642, 29.663491], [106.284206, 29.665768], [106.283404, 29.668506], [106.282301, 29.66959], [106.2808, 29.670377], [106.280721, 29.672225], [106.281503, 29.674296], [106.280815, 29.675797], [106.280534, 29.679296], [106.278811, 29.679107], [106.27639, 29.677483], [106.275414, 29.678592], [106.276403, 29.67946], [106.27653, 29.680032], [106.273702, 29.681599], [106.273851, 29.68217], [106.273503, 29.683163], [106.273954, 29.683762], [106.274566, 29.683534], [106.275337, 29.682379], [106.275832, 29.682366], [106.275607, 29.68329], [106.275752, 29.686307], [106.274709, 29.686673], [106.274509, 29.687109], [106.274968, 29.688618], [106.274516, 29.690772], [106.275735, 29.69248], [106.27601, 29.694358], [106.274278, 29.695405], [106.274946, 29.69603], [106.276023, 29.696339], [106.276037, 29.697509], [106.276817, 29.698295], [106.27654, 29.701438], [106.277086, 29.704492], [106.276643, 29.705733], [106.278019, 29.705515], [106.27837, 29.705017], [106.278206, 29.701544], [106.278597, 29.701602], [106.278849, 29.702589], [106.279096, 29.702627], [106.280038, 29.702233], [106.280078, 29.701118], [106.283691, 29.700222], [106.283882, 29.701111], [106.283284, 29.703336], [106.28443, 29.704821], [106.284683, 29.706677], [106.286173, 29.708226], [106.287036, 29.707861], [106.286487, 29.706521], [106.287335, 29.706489], [106.287825, 29.705983], [106.290007, 29.706611], [106.292405, 29.706706], [106.293245, 29.707017], [106.293565, 29.708138], [106.293656, 29.711242], [106.294213, 29.712236], [106.29433, 29.713432], [106.29536, 29.71475], [106.29539, 29.715809], [106.294761, 29.716972], [106.294725, 29.717959], [106.295722, 29.719012], [106.296073, 29.719955], [106.297688, 29.721125], [106.298055, 29.721911], [106.299785, 29.723103], [106.299218, 29.723489], [106.297377, 29.722582], [106.296866, 29.722892], [106.297968, 29.724255], [106.297769, 29.727089], [106.299105, 29.728332], [106.299314, 29.729323], [106.300233, 29.730659], [106.300382, 29.733986], [106.301257, 29.735654], [106.30129, 29.737845], [106.301998, 29.738885], [106.304354, 29.738416], [106.305782, 29.738543], [106.305276, 29.739965], [106.307089, 29.741771], [106.309889, 29.741429], [106.311044, 29.740759], [106.31179, 29.741382], [106.312172, 29.740367], [106.312807, 29.741134], [106.314178, 29.741065], [106.314706, 29.740465], [106.313726, 29.736758], [106.313844, 29.735943], [106.316563, 29.734925], [106.31667, 29.733455], [106.317295, 29.733301], [106.317662, 29.732727], [106.318707, 29.732914], [106.319053, 29.731808], [106.319514, 29.731939], [106.320346, 29.733252], [106.320946, 29.733368], [106.32132, 29.73315], [106.321568, 29.731654], [106.324673, 29.731443], [106.325682, 29.733247], [106.326387, 29.735614], [106.327453, 29.736263], [106.329282, 29.736022], [106.330463, 29.737609], [106.330099, 29.738314], [106.330678, 29.738611], [106.331706, 29.737975], [106.331481, 29.736881], [106.331683, 29.736696], [106.33281, 29.737614], [106.333111, 29.737493], [106.333312, 29.736551], [106.33589, 29.736133], [106.337005, 29.736365], [106.337583, 29.737206], [106.337996, 29.737322], [106.341827, 29.735953], [106.342352, 29.736059], [106.342604, 29.737011], [106.344078, 29.737435], [106.345932, 29.736296], [106.346953, 29.736612], [106.347756, 29.735493], [106.34789, 29.736479], [106.348628, 29.736251], [106.349468, 29.736727], [106.349292, 29.735697], [106.350036, 29.734898], [106.351063, 29.735733], [106.352111, 29.737861], [106.35088, 29.739624], [106.351657, 29.740019], [106.35264, 29.739798], [106.353549, 29.74005], [106.35472, 29.739186], [106.358113, 29.738661], [106.359087, 29.739179], [106.359507, 29.738903], [106.359686, 29.738039], [106.362632, 29.738213], [106.364288, 29.73797], [106.36471, 29.738644], [106.363904, 29.739917], [106.365258, 29.741227], [106.365379, 29.742566], [106.364793, 29.744274], [106.363431, 29.745866], [106.363356, 29.746475], [106.363636, 29.746574], [106.365323, 29.745556], [106.367566, 29.745763], [106.365804, 29.747532], [106.364309, 29.747387], [106.363824, 29.747928], [106.362495, 29.748202], [106.362806, 29.749339], [106.365004, 29.750531], [106.36694, 29.747584], [106.36764, 29.748327], [106.368721, 29.746955], [106.369524, 29.747283], [106.370582, 29.74717], [106.371154, 29.748274], [106.372477, 29.748605], [106.373511, 29.748367], [106.375695, 29.74675], [106.376835, 29.746399], [106.377461, 29.747028], [106.378195, 29.749479], [106.378515, 29.749752], [106.379823, 29.74972], [106.38144, 29.748745], [106.382839, 29.748439], [106.383796, 29.747738], [106.384533, 29.746431], [106.38619, 29.746099], [106.386814, 29.745664], [106.387073, 29.74392], [106.386792, 29.741734], [106.386188, 29.741654], [106.385515, 29.743103], [106.383782, 29.743821], [106.381814, 29.743387], [106.381596, 29.742883], [106.384558, 29.741819], [106.385884, 29.74029], [106.388229, 29.738759], [106.388894, 29.740079], [106.388865, 29.74079], [106.389621, 29.741216], [106.389392, 29.742073], [106.389625, 29.742769], [106.391883, 29.743526], [106.392034, 29.742377], [106.39307, 29.742208], [106.393841, 29.744011], [106.394248, 29.744239], [106.395958, 29.743437], [106.396158, 29.743766], [106.395801, 29.745738], [106.398973, 29.743355], [106.3999, 29.743543], [106.400653, 29.744412], [106.402167, 29.744179], [106.402755, 29.74243], [106.403798, 29.741392], [106.40613, 29.741264], [106.406786, 29.742504], [106.409394, 29.7427], [106.409029, 29.744665], [106.411494, 29.74637], [106.411074, 29.748008], [106.411157, 29.748954], [106.412636, 29.749748], [106.414359, 29.75292], [106.41489, 29.753359], [106.414206, 29.750756], [106.415375, 29.751554], [106.415784, 29.75242], [106.416201, 29.752383], [106.416419, 29.752211], [106.416101, 29.751198], [106.416613, 29.74963], [106.417295, 29.749631], [106.41806, 29.750648], [106.418985, 29.750377], [106.419819, 29.750911], [106.42015, 29.75072], [106.419911, 29.749598], [106.421024, 29.748589], [106.423373, 29.751152], [106.425747, 29.751324], [106.427551, 29.752536], [106.428242, 29.752245], [106.428442, 29.751067], [106.428995, 29.75149], [106.429919, 29.750946], [106.432397, 29.751411], [106.433096, 29.750914], [106.434025, 29.75139], [106.434178, 29.75117], [106.433265, 29.749868], [106.433403, 29.748904], [106.434133, 29.748236], [106.43454, 29.748758], [106.434833, 29.748009], [106.435489, 29.747528], [106.436847, 29.748661], [106.437341, 29.74738], [106.438201, 29.747195], [106.439299, 29.746414], [106.438402, 29.744817], [106.440355, 29.744323], [106.440597, 29.744], [106.438642, 29.741001], [106.438459, 29.739572], [106.438722, 29.73725], [106.438111, 29.733056], [106.435391, 29.728608], [106.433606, 29.727811], [106.433134, 29.723099], [106.433261, 29.71908], [106.432942, 29.718392], [106.430137, 29.715588], [106.429547, 29.714533], [106.428969, 29.711371], [106.427874, 29.708684], [106.427059, 29.700832], [106.427775, 29.700599], [106.427847, 29.699667], [106.426686, 29.698385], [106.425423, 29.695732], [106.425355, 29.692966], [106.424343, 29.690707], [106.424556, 29.6895], [106.424374, 29.686728], [106.42284, 29.683242], [106.422959, 29.681399], [106.423563, 29.680208], [106.42318, 29.678731], [106.423142, 29.675223], [106.424355, 29.671938], [106.425207, 29.66806], [106.42535, 29.66555], [106.42474, 29.664375], [106.422924, 29.663325], [106.422725, 29.662383], [106.42111, 29.660745], [106.420591, 29.658769], [106.422429, 29.658489], [106.424602, 29.658748], [106.428098, 29.658255], [106.432691, 29.656623], [106.4345, 29.656545], [106.435025, 29.656212], [106.435666, 29.656495], [106.436726, 29.6564], [106.439556, 29.654856], [106.439738, 29.653254], [106.440318, 29.652796], [106.441517, 29.652957], [106.442345, 29.653727], [106.444483, 29.653352], [106.444627, 29.656017], [106.445604, 29.658013], [106.44428, 29.660029], [106.444239, 29.660791], [106.444817, 29.6616], [106.446946, 29.662205], [106.445908, 29.663363], [106.445883, 29.664104], [106.445136, 29.664496], [106.445086, 29.665214], [106.445674, 29.665683], [106.446585, 29.665706], [106.447919, 29.664526], [106.448748, 29.664433], [106.449634, 29.665422], [106.449493, 29.666094], [106.450225, 29.669205], [106.450848, 29.669725], [106.45269, 29.66998], [106.4535, 29.67129], [106.455117, 29.669325], [106.463148, 29.662569], [106.465857, 29.659665], [106.467319, 29.656476], [106.467473, 29.655408], [106.464761, 29.649793], [106.459906, 29.644373], [106.454979, 29.641209], [106.449487, 29.636864], [106.44747, 29.634458], [106.446478, 29.632575], [106.445985, 29.626352], [106.446521, 29.624448], [106.448287, 29.622871], [106.450906, 29.621375], [106.457116, 29.620257], [106.45903, 29.61853], [106.459469, 29.616912], [106.457556, 29.612154], [106.457902, 29.611002], [106.458788, 29.610514], [106.458109, 29.609985], [106.455957, 29.60659], [106.455416, 29.604972], [106.454121, 29.60271], [106.447058, 29.594613], [106.446107, 29.59272], [106.44629, 29.591304], [106.446852, 29.590111], [106.449943, 29.587087], [106.45543, 29.586173], [106.459992, 29.583054], [106.466091, 29.576775], [106.472573, 29.568698], [106.477852, 29.562878], [106.479078, 29.561908], [106.482237, 29.556496], [106.483731, 29.555946], [106.485611, 29.555925], [106.488341, 29.557062], [106.490291, 29.557477], [106.491, 29.555515], [106.489664, 29.554688], [106.487798, 29.554097], [106.478473, 29.552533], [106.478348, 29.551294], [106.479187, 29.550833], [106.478347, 29.550541], [106.477511, 29.550915], [106.475966, 29.55025], [106.476054, 29.549874], [106.477179, 29.549249], [106.477816, 29.547325], [106.479123, 29.546662], [106.47858, 29.545577], [106.479424, 29.54477], [106.479837, 29.543372], [106.479823, 29.543035], [106.479317, 29.54298], [106.479188, 29.542291], [106.479788, 29.540694], [106.4792, 29.540353], [106.475894, 29.540023], [106.475374, 29.539723], [106.475452, 29.538795], [106.473583, 29.538624], [106.473447, 29.537818], [106.474168, 29.53707], [106.473096, 29.535046], [106.472803, 29.534939], [106.47219, 29.535546], [106.470887, 29.534709], [106.468926, 29.537234], [106.46717, 29.538264], [106.466399, 29.53769], [106.465006, 29.538023], [106.464233, 29.537511], [106.463111, 29.537459], [106.46253, 29.537084], [106.462659, 29.537718], [106.462317, 29.53787], [106.461498, 29.536614], [106.461086, 29.536567], [106.461, 29.537225], [106.460117, 29.536123], [106.459105, 29.536913], [106.458028, 29.536391], [106.457733, 29.536075], [106.458117, 29.53563], [106.45798, 29.534718], [106.457428, 29.534451], [106.457298, 29.533632], [106.456178, 29.534142], [106.456023, 29.533829], [106.457888, 29.532529], [106.457517, 29.530296], [106.457923, 29.529656], [106.456974, 29.529072], [106.457153, 29.529757], [106.456187, 29.530145], [106.455833, 29.528874], [106.454965, 29.529007], [106.453745, 29.528186], [106.452644, 29.528341], [106.45222, 29.527263], [106.451586, 29.527878], [106.452348, 29.525897], [106.45081, 29.524617], [106.451322, 29.523425]]]]}}], "metadata": {"layer": "outline", "description": "沙坪坝区外轮廓（query-simplify）", "source": "cq_admin_division_api", "mode": "query-simplify", "code": "500106", "feature_count": 1, "exported_at": "2026-05-24T19:14:38+0800"}, "_meta": {"layer": "district_outline", "source_file": "shapingba_outline.geojson", "exported_at": "2026-05-24T21:33:21+0800"}}