{
  "type": "FeatureCollection",
  "features": [
    {
      "type": "Feature",
      "properties": { "id": "ent-001", "name": "示例智造 A", "category": "装备制造", "streetCode": "500106012" },
      "geometry": { "type": "Point", "coordinates": [106.36, 29.625] }
    },
    {
      "type": "Feature",
      "properties": { "id": "ent-002", "name": "示例软件 B", "category": "信息服务", "streetCode": "500106015" },
      "geometry": { "type": "Point", "coordinates": [106.4, 29.575] }
    },
    {
      "type": "Feature",
      "properties": { "id": "ent-003", "name": "示例物流 C", "category": "物流仓储", "streetCode": "500106012" },
      "geometry": { "type": "Point", "coordinates": [106.365, 29.62] }
    }
  ]
}
