{
  "type": "FeatureCollection",
  "features": [
    {
      "type": "Feature",
      "properties": { "parkId": "park-xhg", "name": "西永高新园", "category": "高新技术" },
      "geometry": {
        "type": "Polygon",
        "coordinates": [
          [
            [106.35, 29.615],
            [106.37, 29.615],
            [106.37, 29.635],
            [106.35, 29.635],
            [106.35, 29.615]
          ]
        ]
      }
    },
    {
      "type": "Feature",
      "properties": { "parkId": "park-cqdx", "name": "大学城科创园", "category": "科教" },
      "geometry": {
        "type": "Polygon",
        "coordinates": [
          [
            [106.39, 29.565],
            [106.41, 29.565],
            [106.41, 29.585],
            [106.39, 29.585],
            [106.39, 29.565]
          ]
        ]
      }
    }
  ]
}
