{"features":[{"geometry":{"coordinates":[[[106.3821,29.6239],[106.3824,29.6239],[106.3824,29.6241],[106.3821,29.6241],[106.3821,29.6239]]],"type":"Polygon"},"id":"plaza_ground","properties":{"entityId":"plaza_ground","name":"plaza_ground"},"type":"Feature"},{"geometry":{"coordinates":[[[106.38218,29.62398],[106.38228,29.62398],[106.38228,29.62406],[106.38218,29.62406],[106.38218,29.62398]]],"type":"Polygon"},"id":"kiosk","properties":{"entityId":"kiosk","height":4.2,"name":"kiosk","shellColor":"#e8dcc8"},"type":"Feature"}],"type":"FeatureCollection"}